IRIDIUM 126             
1 42809U 17039G   24265.51095970  .00000214  00000+0  69503-4 0  9991
2 42809  86.3912 258.4116 0002131  89.2312 270.9128 14.34218595379126
IRIDIUM 124             
1 42810U 17039H   24265.50718583  .00000679  00000+0  19582-3 0  9990
2 42810  86.4558 195.2013 0002259  93.5110 266.6349 14.43273393383718
IRIDIUM 128             
1 42811U 17039J   24265.50169556  .00000489  00000+0  16752-3 0  9996
2 42811  86.3920 289.9673 0002144  95.9763 264.1677 14.34216457379155
IRIDIUM 121             
1 42812U 17039K   24265.46021925  .00000286  00000+0  95067-4 0  9991
2 42812  86.3912 258.4560 0002227  89.3224 270.8227 14.34218956378996
IRIDIUM 133             
1 42955U 17061A   24265.46364616  .00000425  00000+0  14475-3 0  9999
2 42955  86.3920 290.0854 0002291  90.4396 269.7062 14.34219103363943
IRIDIUM 100             
1 42956U 17061B   24265.45730195  .00000305  00000+0  10187-3 0  9991
2 42956  86.3917 290.0216 0002179  95.7412 264.4032 14.34218728363945
IRIDIUM 122             
1 42957U 17061C   24265.49535678  .00000144  00000+0  44229-4 0  9991
2 42957  86.3917 290.0045 0002093  90.4882 269.6553 14.34217455363956
IRIDIUM 129             
1 42958U 17061D   24265.45095531  .00000201  00000+0  64740-4 0  9991
2 42958  86.3920 290.0829 0002174  85.4964 274.6480 14.34218913363962
